satname,norad_id,inclination_deg,eccentricity,mean_motion_rev_per_day,perigee_km,apogee_km,l1,l2
STARLINK-1153,45080,53.0571,0.0001742,15.06376516,546.0771256940052,548.4899422080334,1 45080U 20006AN  25312.10213613  .00000327  00000+0  40875-4 0  9994,2 45080  53.0571  92.4454 0001742  87.5928 272.5261 15.06376516318413
STARLINK-1151,45081,53.0547,0.0001088,15.0638532,546.5030675710668,548.0100332076317,1 45081U 20006AP  25311.88835505 -.00000169  00000+0  75219-5 0  9995,2 45081  53.0547  93.4802 0001088  81.5608 278.5504 15.06385320318382
STARLINK-1190,45083,53.0369,0.0004953,15.96025223,282.1587585947045,288.75971702788047,1 45083U 20006AR  25312.91667823  .00403001  76640-4  96416-3 0  9997,2 45083  53.0369  34.2562 0004953 330.2076 301.2699 15.96025223  5956
STARLINK-1185,45087,53.0553,0.0001196,15.06400317,546.3823148077736,548.0388579504361,1 45087U 20006AV  25312.72689164  .00000665  00000+0  63508-4 0  9990,2 45087  53.0553  69.6377 0001196  82.0067 278.1058 15.06400317318791
STARLINK-1183,45088,53.0566,0.0001129,15.0638691,546.4698008118339,548.0335535751437,1 45088U 20006AW  25312.68266072  .00002464  00000+0  18431-3 0  9998,2 45088  53.0566  69.8401 0001129  99.8848 260.2269 15.06386910318782
STARLINK-1142,45093,53.0333,0.0006355,15.64497055,370.39419063336936,378.9770281699184,1 45093U 20006BB  25312.91667823  .00246586  00000+0  24432-2 0  9991,2 45093  53.0333 358.6538 0006355  23.5497  69.3284 15.64497055  5987
STARLINK-1152,45096,53.0467,0.0004432,15.25062708,487.5529171799317,493.64136312176197,1 45096U 20006BE  25312.91667823 -.00009797  00000+0 -37369-3 0  9991,2 45096  53.0467  49.9302 0004432 212.3646 141.8174 15.25062708  5833
STARLINK-1184,45098,53.0543,0.0001552,15.06446291,545.9948942457231,548.1444784011583,1 45098U 20006BG  25312.63103855 -.00010498  00000+0 -68605-3 0  9999,2 45098  53.0543  70.0714 0001552  73.9697 286.1463 15.06446291318775
STARLINK-1193,45100,53.0557,0.0001359,15.06400119,546.2700384009822,548.1523480399001,1 45100U 20006BJ  25312.62737476  .00000056  00000+0  22637-4 0  9997,2 45100  53.0557  70.0867 0001359  88.8356 271.2789 15.06400119318770
STARLINK-1143,45179,53.0522,0.0009553,15.41680485,434.63484287229494,447.663771290604,1 45179U 20012B   25312.68810541  .00029157  00000+0  68682-3 0  9993,2 45179  53.0522 191.4955 0009553  83.4470 276.7622 15.41680485317147
STARLINK-1202,45183,53.0536,0.0001456,15.06390092,546.2335895262704,548.2502598691417,1 45183U 20012F   25312.09291074 -.00002102  00000+0 -12232-3 0  9990,2 45183  53.0536 232.4891 0001456  80.8615 279.2539 15.06390092316516
STARLINK-1216,45185,53.0544,0.000145,15.06388095,546.2438644573749,548.2522261205086,1 45185U 20012H   25312.81536441 -.00000004  00000+0  18642-4 0  9992,2 45185  53.0544 229.2451 0001450  88.7558 271.3597 15.06388095316562
STARLINK-1225,45187,53.0542,0.0001752,15.06404623,545.9840705603683,548.4107077303252,1 45187U 20012K   25312.76743939  .00006096  00000+0  42775-3 0  9999,2 45187  53.0542 229.4608 0001752  90.5377 269.5812 15.06404623316603
STARLINK-1230,45189,53.0534,0.0001801,15.06386004,546.0071909937433,548.5017169954717,1 45189U 20012M   25312.77113074 -.00001140  00000+0 -57645-4 0  9993,2 45189  53.0534 229.4470 0001801  85.3705 274.7489 15.06386004313837
STARLINK-1234,45190,53.0496,0.0003565,15.37213281,451.91854799487373,456.79011431398703,1 45190U 20012N   25312.67406294  .00087779  00000+0  23564-2 0  9994,2 45190  53.0496 185.1448 0003565 120.4602 239.6753 15.37213281317125
STARLINK-1269,45197,53.053,0.0001538,15.06406361,546.126946848226,548.2571780678381,1 45197U 20012V   25312.51679348  .00001649  00000+0  12955-3 0  9991,2 45197  53.0530 230.5881 0001538  83.8079 276.3085 15.06406361316545
STARLINK-1154,45198,53.0529,0.0001606,15.06386854,546.1396313787936,548.3640662770367,1 45198U 20012W   25312.70664376  .00001094  00000+0  92380-4 0  9993,2 45198  53.0529 209.7350 0001606  81.2544 278.8627 15.06386854316822
STARLINK-1199,45201,53.0549,0.0001818,15.06387568,545.9906251949078,548.5086957846625,1 45201U 20012Z   25312.71768369  .00006982  00000+0  48729-3 0  9994,2 45201  53.0549 209.6854 0001818  87.5727 272.5470 15.06387568316880
STARLINK-1209,45206,53.0531,0.0002578,15.31115253,470.71756033275415,474.24974034006664,1 45206U 20012AE  25312.83031339  .00066815  00000+0  21848-2 0  9995,2 45206  53.0531 185.3690 0002578 112.9908 247.1364 15.31115253316284
STARLINK-1210,45207,53.0233,0.0011609,15.58631058,383.75907977242696,399.4770971367998,1 45207U 20012AF  25312.91667823  .00204165  00000+0  25467-2 0  9991,2 45207  53.0233 145.5494 0011609  93.3705 302.8939 15.58631058  5980
STARLINK-1231,45212,53.0488,0.0007236,15.12811014,522.6351316626424,532.6291607710473,1 45212U 20012AL  25312.69962683  .00043132  00000+0  24288-2 0  9999,2 45212  53.0488 207.7471 0007236  74.3000 285.8790 15.12811014316861
STARLINK-1271,45217,53.052,0.0002443,15.06403412,545.5092405714404,548.8929607674281,1 45217U 20012AR  25312.70293233  .00000845  00000+0  75634-4 0  9991,2 45217  53.0520 209.7498 0002443  83.2609 276.8658 15.06403412316880
STARLINK-1191,45222,53.0527,0.000162,15.06396779,546.0995217913232,548.3433379225962,1 45222U 20012AW  25312.38042470  .00004110  00000+0  29467-3 0  9997,2 45222  53.0527 191.1973 0001620  91.9998 268.1176 15.06396779317111
STARLINK-1212,45223,53.0533,0.0001608,15.06393053,546.119250102739,548.3464490463621,1 45223U 20012AX  25312.66431624  .00000468  00000+0  50339-4 0  9997,2 45223  53.0533 190.5791 0001608  90.6064 269.5109 15.06393053317153
STARLINK-1215,45225,53.0533,0.0001452,15.06434106,546.1014844994525,548.1125753657443,1 45225U 20012AZ  25312.68632677  .00009171  00000+0  63316-3 0  9990,2 45225  53.0533 189.8230 0001452 127.5830 232.5291 15.06434106317115
STARLINK-1221,45227,53.0661,0.0002888,15.36997219,453.0212219494133,456.96803877911225,1 45227U 20012BB  25312.18850756  .00019145  00000+0  53054-3 0  9997,2 45227  53.0661 123.2487 0002888  15.9943 344.1150 15.36997219317996
STARLINK-1222,45228,53.0535,0.0001539,15.06396237,546.1572780973065,548.2889039333204,1 45228U 20012BC  25312.65318441  .00000672  00000+0  64047-4 0  9990,2 45228  53.0535 189.9735 0001539  86.2814 273.8351 15.06396237317049
STARLINK-1226,45229,53.0507,0.0001343,15.06393021,546.3028704667277,548.1630248346673,1 45229U 20012BD  25312.68266766 -.00002387  00000+0 -14141-3 0  9992,2 45229  53.0507 189.8390 0001343  86.6584 273.4558 15.06393021317050
STARLINK-1227,45230,53.0524,0.0001583,15.06404155,546.1025428301191,548.2951041518363,1 45230U 20012BE  25312.67898116  .00001194  00000+0  99052-4 0  9991,2 45230  53.0524 189.8564 0001583  84.5795 275.5374 15.06404155317174
STARLINK-1246,45235,53.0545,0.0001692,15.06386963,546.0797390170783,548.4232904904702,1 45235U 20012BK  25312.76007567 -.00002956  00000+0 -17969-3 0  9993,2 45235  53.0545 229.4934 0001692  74.6566 285.4610 15.06386963316630
STARLINK-1270,45237,53.053,0.0001584,15.06404494,546.1008114799079,548.2947575396402,1 45237U 20012BM  25312.36566920  .00000856  00000+0  76343-4 0  9991,2 45237  53.0530 191.2637 0001584  89.8434 270.2737 15.06404494317110
STARLINK-1279,45360,53.0523,0.0004616,15.35480119,456.3385301349508,462.651031795137,1 45360U 20019A   25312.91667823  .00156255  00000+0  43858-2 0  9998,2 45360  53.0523 314.5396 0004616  36.7570 315.8863 15.35480119  5831
STARLINK-1301,45361,53.0514,0.0004048,15.38035641,449.1538340444631,454.68344709106714,1 45361U 20019B   25312.91667823  .00159512  00000+0  41218-2 0  9996,2 45361  53.0514 324.1178 0004048  27.2006 245.1679 15.38035641  5597
STARLINK-1306,45362,53.0458,0.000665,15.722658,347.9471159220848,356.8987606399978,1 45362U 20019C   25312.91667823  .00211939  00000+0  15349-2 0  9995,2 45362  53.0458 312.2407 0006650 345.8237 333.5786 15.72265800  5865
STARLINK-1262,45366,53.0545,0.0001389,15.06402852,546.2408872822516,548.1647466834102,1 45366U 20019G   25312.54260821  .00007389  00000+0  51436-3 0  9995,2 45366  53.0545 350.4656 0001389  98.0300 262.0847 15.06402852311476
STARLINK-1273,45367,53.054,0.0001581,15.06397771,546.1234908235847,548.3132881977472,1 45367U 20019H   25312.83012100  .00024991  00000+0  16908-2 0  9995,2 45367  53.0540 349.1760 0001581  89.2099 270.9071 15.06397771311519
STARLINK-1276,45368,53.0553,0.0001494,15.06413703,546.1349197350864,548.204201335373,1 45368U 20019J   25312.40253066  .00006835  00000+0  47711-3 0  9991,2 45368  53.0553 351.0975 0001494  80.4738 279.6419 15.06413703311459
STARLINK-1277,45369,53.0543,0.0001654,15.06411331,546.0313833653954,548.3222771804494,1 45369U 20019K   25312.52792894  .00012344  00000+0  84590-3 0  9990,2 45369  53.0543 351.1616 0001654  91.6498 268.4680 15.06411331311469
STARLINK-1281,45370,53.0544,0.0001723,15.06384728,546.0651191927918,548.4516104355062,1 45370U 20019L   25312.52417456 -.00006387  00000+0 -41041-3 0  9996,2 45370  53.0544 350.5518 0001723  99.6455 260.4728 15.06384728311479
STARLINK-1300,45374,53.0553,0.0001438,15.06388964,546.2495119087826,548.2412518818155,1 45374U 20019Q   25312.47993007  .00005508  00000+0  38851-3 0  9992,2 45374  53.0553 350.7490 0001438  90.6074 269.5079 15.06388964311469
STARLINK-1302,45375,53.0539,0.0001221,15.06387192,546.4052230397674,548.0964027436758,1 45375U 20019R   25312.42834757  .00003889  00000+0  27993-3 0  9999,2 45375  53.0539 350.9819 0001221  89.3134 270.7995 15.06387192311455
STARLINK-1304,45376,53.0541,0.0001393,15.06410696,546.2140799450945,548.1434729204084,1 45376U 20019S   25312.38041432  .00006946  00000+0  48460-3 0  9994,2 45376  53.0541 351.1953 0001393  89.6546 270.4602 15.06410696311448
STARLINK-1305,45377,53.0529,0.0002291,15.32272554,467.4650862022272,470.6024598504282,1 45377U 20019T   25312.51806900  .00094635  00000+0  29690-2 0  9994,2 45377  53.0529 346.8487 0002291  38.4175 321.6988 15.32272554311529
